{
  "type": "FeatureCollection",
  "features": [
    {
      "type": "Feature",
      "properties": {
        "norad_id": 36036,
        "name": "SMOS",
        "group": "resource",
        "lat": -35.5410119132954,
        "lon": 168.47963667801957,
        "alt_km": 765.6715007400762,
        "timestamp": "2025-12-03T04:52:29.298136+00:00",
        "meta_object_name": "SMOS",
        "meta_object_id": "2009-059A",
        "meta_epoch": "2025-12-02T19:02:03.717312",
        "meta_mean_motion": 14.39787654,
        "meta_eccentricity": 0.0001043,
        "meta_inclination": 98.4384,
        "meta_ra_of_asc_node": 161.9883,
        "meta_arg_of_pericenter": 72.0153,
        "meta_mean_anomaly": 288.1149,
        "meta_ephemeris_type": 0,
        "meta_classification_type": "U",
        "meta_norad_cat_id": 36036,
        "meta_element_set_no": 999,
        "meta_rev_at_epoch": 84519,
        "meta_bstar": 0.0001873,
        "meta_mean_motion_dot": 5.44e-06,
        "meta_mean_motion_ddot": 0,
        "tle_line1": "1 36036U 09059A   25336.79309858  .00000544  00000+0  18730-3 0  9993",
        "tle_line2": "2 36036  98.4384 161.9883 0001043  72.0153 288.1149 14.39787654845192"
      },
      "geometry": {
        "type": "Point",
        "coordinates": [
          168.47963667801957,
          -35.5410119132954
        ]
      }
    },
    {
      "type": "Feature",
      "properties": {
        "norad_id": 36110,
        "name": "YAOGAN-7",
        "group": "resource",
        "lat": -70.989463803247,
        "lon": -116.81636605124987,
        "alt_km": 628.8439143183368,
        "timestamp": "2025-12-03T04:52:29.298146+00:00",
        "meta_object_name": "YAOGAN-7",
        "meta_object_id": "2009-069A",
        "meta_epoch": "2025-12-02T16:12:03.735936",
        "meta_mean_motion": 14.77707249,
        "meta_eccentricity": 0.0023838,
        "meta_inclination": 98.0304,
        "meta_ra_of_asc_node": 218.4677,
        "meta_arg_of_pericenter": 315.2406,
        "meta_mean_anomaly": 44.688,
        "meta_ephemeris_type": 0,
        "meta_classification_type": "U",
        "meta_norad_cat_id": 36110,
        "meta_element_set_no": 999,
        "meta_rev_at_epoch": 86060,
        "meta_bstar": 0.00014264,
        "meta_mean_motion_dot": 9.73e-06,
        "meta_mean_motion_ddot": 0,
        "tle_line1": "1 36110U 09069A   25336.67504324  .00000973  00000+0  14264-3 0  9993",
        "tle_line2": "2 36110  98.0304 218.4677 0023838 315.2406  44.6880 14.77707249860605"
      },
      "geometry": {
        "type": "Point",
        "coordinates": [
          -116.81636605124987,
          -70.989463803247
        ]
      }
    },
    {
      "type": "Feature",
      "properties": {
        "norad_id": 36605,
        "name": "TANDEM-X",
        "group": "resource",
        "lat": -13.335472123633261,
        "lon": 160.94632450824977,
        "alt_km": 513.2506688099866,
        "timestamp": "2025-12-03T04:52:29.298156+00:00",
        "meta_object_name": "TANDEM-X",
        "meta_object_id": "2010-030A",
        "meta_epoch": "2025-12-02T15:22:47.718912",
        "meta_mean_motion": 15.19155178,
        "meta_eccentricity": 0.00017925,
        "meta_inclination": 97.4443,
        "meta_ra_of_asc_node": 342.1684,
        "meta_arg_of_pericenter": 94.9925,
        "meta_mean_anomaly": 265.1514,
        "meta_ephemeris_type": 0,
        "meta_classification_type": "U",
        "meta_norad_cat_id": 36605,
        "meta_element_set_no": 999,
        "meta_rev_at_epoch": 85680,
        "meta_bstar": 9.0053561e-05,
        "meta_mean_motion_dot": 1.825e-05,
        "meta_mean_motion_ddot": 0,
        "tle_line1": "1 36605U 10030A   25336.64083008  .00001825  00000+0  90054-4 0  9999",
        "tle_line2": "2 36605  97.4443 342.1684 0001792  94.9925 265.1514 15.19155178856802"
      },
      "geometry": {
        "type": "Point",
        "coordinates": [
          160.94632450824977,
          -13.335472123633261
        ]
      }
    },
    {
      "type": "Feature",
      "properties": {
        "norad_id": 36795,
        "name": "CARTOSAT-2B",
        "group": "resource",
        "lat": 0.5855014520963548,
        "lon": -153.3772215824123,
        "alt_km": 633.6516647972821,
        "timestamp": "2025-12-03T04:52:29.298166+00:00",
        "meta_object_name": "CARTOSAT-2B",
        "meta_object_id": "2010-035A",
        "meta_epoch": "2025-12-02T21:34:19.139232",
        "meta_mean_motion": 14.78763308,
        "meta_eccentricity": 0.0012862,
        "meta_inclination": 97.7867,
        "meta_ra_of_asc_node": 26.2482,
        "meta_arg_of_pericenter": 106.4485,
        "meta_mean_anomaly": 253.8141,
        "meta_ephemeris_type": 0,
        "meta_classification_type": "U",
        "meta_norad_cat_id": 36795,
        "meta_element_set_no": 999,
        "meta_rev_at_epoch": 83084,
        "meta_bstar": 0.00015199,
        "meta_mean_motion_dot": 1.068e-05,
        "meta_mean_motion_ddot": 0,
        "tle_line1": "1 36795U 10035A   25336.89883263  .00001068  00000+0  15199-3 0  9997",
        "tle_line2": "2 36795  97.7867  26.2482 0012862 106.4485 253.8141 14.78763308830841"
      },
      "geometry": {
        "type": "Point",
        "coordinates": [
          -153.3772215824123,
          0.5855014520963548
        ]
      }
    },
    {
      "type": "Feature",
      "properties": {
        "norad_id": 36834,
        "name": "YAOGAN-10",
        "group": "resource",
        "lat": 59.027893604882514,
        "lon": -16.307576033905057,
        "alt_km": 608.3351829894473,
        "timestamp": "2025-12-03T04:52:29.298176+00:00",
        "meta_object_name": "YAOGAN-10",
        "meta_object_id": "2010-038A",
        "meta_epoch": "2025-12-02T20:58:21.162720",
        "meta_mean_motion": 14.845486,
        "meta_eccentricity": 0.0001509,
        "meta_inclination": 97.9151,
        "meta_ra_of_asc_node": 356.7685,
        "meta_arg_of_pericenter": 84.8589,
        "meta_mean_anomaly": 16.545,
        "meta_ephemeris_type": 0,
        "meta_classification_type": "U",
        "meta_norad_cat_id": 36834,
        "meta_element_set_no": 999,
        "meta_rev_at_epoch": 82807,
        "meta_bstar": 0.00017409,
        "meta_mean_motion_dot": 1.415e-05,
        "meta_mean_motion_ddot": 0,
        "tle_line1": "1 36834U 10038A   25336.87385605  .00001415  00000+0  17409-3 0  9991",
        "tle_line2": "2 36834  97.9151 356.7685 0001509  84.8589  16.5450 14.84548600828071"
      },
      "geometry": {
        "type": "Point",
        "coordinates": [
          -16.307576033905057,
          59.027893604882514
        ]
      }
    },
    {
      "type": "Feature",
      "properties": {
        "norad_id": 37216,
        "name": "COSMO-SKYMED 4",
        "group": "resource",
        "lat": 64.9629374526691,
        "lon": 141.41819001407796,
        "alt_km": 615.1685440286556,
        "timestamp": "2025-12-03T04:52:29.298186+00:00",
        "meta_object_name": "COSMO-SKYMED 4",
        "meta_object_id": "2010-060A",
        "meta_epoch": "2025-12-02T22:05:47.315328",
        "meta_mean_motion": 14.82166845,
        "meta_eccentricity": 0.0001483,
        "meta_inclination": 97.8815,
        "meta_ra_of_asc_node": 158.3917,
        "meta_arg_of_pericenter": 84.4768,
        "meta_mean_anomaly": 275.6614,
        "meta_ephemeris_type": 0,
        "meta_classification_type": "U",
        "meta_norad_cat_id": 37216,
        "meta_element_set_no": 999,
        "meta_rev_at_epoch": 81549,
        "meta_bstar": 0.00010541,
        "meta_mean_motion_dot": 7.87e-06,
        "meta_mean_motion_ddot": 0,
        "tle_line1": "1 37216U 10060A   25336.92068652  .00000787  00000+0  10541-3 0  9998",
        "tle_line2": "2 37216  97.8815 158.3917 0001483  84.4768 275.6614 14.82166845815499"
      },
      "geometry": {
        "type": "Point",
        "coordinates": [
          141.41819001407796,
          64.9629374526691
        ]
      }
    },
    {
      "type": "Feature",
      "properties": {
        "norad_id": 37387,
        "name": "RESOURCESAT-2",
        "group": "resource",
        "lat": -52.39531227512027,
        "lon": 52.38469957463317,
        "alt_km": 829.3570601741148,
        "timestamp": "2025-12-03T04:52:29.298196+00:00",
        "meta_object_name": "RESOURCESAT-2",
        "meta_object_id": "2011-015A",
        "meta_epoch": "2025-12-02T18:59:23.513568",
        "meta_mean_motion": 14.21590584,
        "meta_eccentricity": 0.0006801,
        "meta_inclination": 98.7891,
        "meta_ra_of_asc_node": 40.3872,
        "meta_arg_of_pericenter": 68.0698,
        "meta_mean_anomaly": 292.1202,
        "meta_ephemeris_type": 0,
        "meta_classification_type": "U",
        "meta_norad_cat_id": 37387,
        "meta_element_set_no": 999,
        "meta_rev_at_epoch": 75827,
        "meta_bstar": 0.00011716,
        "meta_mean_motion_dot": 2.12e-06,
        "meta_mean_motion_ddot": 0,
        "tle_line1": "1 37387U 11015A   25336.79124437  .00000212  00000+0  11716-3 0  9995",
        "tle_line2": "2 37387  98.7891  40.3872 0006801  68.0698 292.1202 14.21590584758274"
      },
      "geometry": {
        "type": "Point",
        "coordinates": [
          52.38469957463317,
          -52.39531227512027
        ]
      }
    }
  ]
}